{
    "satellites": [
        {
            "CCSDS_OMM_VERS":"2.0",
            "COMMENT":"GENERATED VIA SPACE-TRACK.ORG API",
            "CREATION_DATE":"2022-10-20T04:16:12",
            "ORIGINATOR":"18 SPCS",
            "OBJECT_NAME":"FALCON 9 DEB",
            "OBJECT_ID":"2022-111AM",
            "CENTER_NAME":"EARTH",
            "REF_FRAME":"TEME",
            "TIME_SYSTEM":"UTC",
            "MEAN_ELEMENT_THEORY":"SGP4",
            "EPOCH":"2022-10-20T02:24:21.365856",
            "MEAN_MOTION":"16.42278002",
            "ECCENTRICITY":"0.00067070",
            "INCLINATION":"53.1820",
            "RA_OF_ASC_NODE":"68.2361",
            "ARG_OF_PERICENTER":"272.5205",
            "MEAN_ANOMALY":"257.9360",
            "EPHEMERIS_TYPE":"0",
            "CLASSIFICATION_TYPE":"U",
            "NORAD_CAT_ID":"53808",
            "ELEMENT_SET_NO":"999",
            "REV_AT_EPOCH":"622",
            "BSTAR":"0.00064176000000",
            "MEAN_MOTION_DOT":"0.12063580",
            "MEAN_MOTION_DDOT":"0.0000124180000",
            "SEMIMAJOR_AXIS":"6537.887",
            "PERIOD":"87.683",
            "APOAPSIS":"164.137",
            "PERIAPSIS":"155.367",
            "OBJECT_TYPE":"DEBRIS",
            "RCS_SIZE":"LARGE",
            "COUNTRY_CODE":"US",
            "LAUNCH_DATE":"2022-09-11",
            "SITE":"AFETR",
            "DECAY_DATE":"2022-10-20",
            "FILE":"3623847",
            "GP_ID":"215625171",
            "TLE_LINE0":"0 FALCON 9 DEB",
            "TLE_LINE1":"1 53808U 22111AM  22293.10024729  .12063580  12418-4  64176-3 0  9996",
            "TLE_LINE2":"2 53808  53.1820  68.2361 0006707 272.5205 257.9360 16.42278002  6228"
        },
        {
            "CCSDS_OMM_VERS":"2.0",
            "COMMENT":"GENERATED VIA SPACE-TRACK.ORG API",
            "CREATION_DATE":"2022-10-13T10:56:12",
            "ORIGINATOR":"18 SPCS",
            "OBJECT_NAME":"CZ-7A R\/B",
            "OBJECT_ID":"2022-112B",
            "CENTER_NAME":"EARTH",
            "REF_FRAME":"TEME",
            "TIME_SYSTEM":"UTC",
            "MEAN_ELEMENT_THEORY":"SGP4",
            "EPOCH":"2022-10-13T01:07:07.549824",
            "MEAN_MOTION":"12.49745743",
            "ECCENTRICITY":"0.17659390",
            "INCLINATION":"13.8654",
            "RA_OF_ASC_NODE":"182.3002",
            "ARG_OF_PERICENTER":"232.6723",
            "MEAN_ANOMALY":"296.0042",
            "EPHEMERIS_TYPE":"0",
            "CLASSIFICATION_TYPE":"U",
            "NORAD_CAT_ID":"53814",
            "ELEMENT_SET_NO":"999",
            "REV_AT_EPOCH":"104",
            "BSTAR":"0.00143510000000",
            "MEAN_MOTION_DOT":"0.99999999",
            "MEAN_MOTION_DDOT":"-0.0000608550000",
            "SEMIMAJOR_AXIS":"7843.696",
            "PERIOD":"115.223",
            "APOAPSIS":"2850.709",
            "PERIAPSIS":"80.412",
            "OBJECT_TYPE":"ROCKET BODY",
            "RCS_SIZE":"LARGE",
            "COUNTRY_CODE":"PRC",
            "LAUNCH_DATE":"2022-09-13",
            "SITE":"WSC",
            "DECAY_DATE":"2022-10-13",
            "FILE":"3607953",
            "GP_ID":"214947330",
            "TLE_LINE0":"0 CZ-7A R\/B",
            "TLE_LINE1":"1 53814U 22113B   22286.04661516  .99999999 -60855-4  14351-2 0  9996",
            "TLE_LINE2":"2 53814  13.8654 182.3002 1765939 232.6723 296.0042 12.49745743  1045"
        },
        {
           "CCSDS_OMM_VERS":"2.0",
           "COMMENT":"GENERATED VIA SPACE-TRACK.ORG API",
           "CREATION_DATE":"2022-09-28T04:16:11",
           "ORIGINATOR":"18 SPCS",
           "OBJECT_NAME":"ELECTRON R\/B",
           "OBJECT_ID":"2022-113B",
           "CENTER_NAME":"EARTH",
           "REF_FRAME":"TEME",
           "TIME_SYSTEM":"UTC",
           "MEAN_ELEMENT_THEORY":"SGP4",
           "EPOCH":"2022-09-28T03:32:22.162272",
           "MEAN_MOTION":"16.44938793",
           "ECCENTRICITY":"0.00432310",
           "INCLINATION":"97.6159",
           "RA_OF_ASC_NODE":"323.5414",
           "ARG_OF_PERICENTER":"193.2727",
           "MEAN_ANOMALY":"225.4717",
           "EPHEMERIS_TYPE":"0",
           "CLASSIFICATION_TYPE":"U",
           "NORAD_CAT_ID":"53816",
           "ELEMENT_SET_NO":"999",
           "REV_AT_EPOCH":"194",
           "BSTAR":"0.00028177000000",
           "MEAN_MOTION_DOT":"0.22655063",
           "MEAN_MOTION_DDOT":"0.0000020725000",
           "SEMIMAJOR_AXIS":"6530.835",
           "PERIOD":"87.541",
           "APOAPSIS":"180.933",
           "PERIAPSIS":"124.466",
           "OBJECT_TYPE":"ROCKET BODY",
           "RCS_SIZE":"LARGE",
           "COUNTRY_CODE":"US",
           "LAUNCH_DATE":"2022-09-15",
           "SITE":"RLLC",
           "DECAY_DATE":"2022-09-28",
           "FILE":"3585295",
           "GP_ID":"213669950",
           "TLE_LINE0":"0 ELECTRON R\/B",
           "TLE_LINE1":"1 53816U 22113B   22271.14747873  .22655063  20725-5  28177-3 0  9995",
           "TLE_LINE2":"2 53816  97.6159 323.5414 0043231 193.2727 225.4717 16.44938793  1944"
        },
        {
           "CCSDS_OMM_VERS":"2.0",
           "COMMENT":"GENERATED VIA SPACE-TRACK.ORG API",
           "CREATION_DATE":"2022-10-07T14:46:12",
           "ORIGINATOR":"18 SPCS",
           "OBJECT_NAME":"STARLINK-4713",
           "OBJECT_ID":"2022-114E",
           "CENTER_NAME":"EARTH",
           "REF_FRAME":"TEME",
           "TIME_SYSTEM":"UTC",
           "MEAN_ELEMENT_THEORY":"SGP4",
           "EPOCH":"2022-10-07T13:29:22.828992",
           "MEAN_MOTION":"16.37848764",
           "ECCENTRICITY":"0.00351070",
           "INCLINATION":"53.1893",
           "RA_OF_ASC_NODE":"163.7779",
           "ARG_OF_PERICENTER":"70.8516",
           "MEAN_ANOMALY":"296.7032",
           "EPHEMERIS_TYPE":"0",
           "CLASSIFICATION_TYPE":"U",
           "NORAD_CAT_ID":"53822",
           "ELEMENT_SET_NO":"999",
           "REV_AT_EPOCH":"353",
           "BSTAR":"0.00088184000000",
           "MEAN_MOTION_DOT":"0.17043645",
           "MEAN_MOTION_DDOT":"0.0000124830000",
           "SEMIMAJOR_AXIS":"6549.668",
           "PERIOD":"87.920",
           "APOAPSIS":"194.527",
           "PERIAPSIS":"148.539",
           "OBJECT_TYPE":"PAYLOAD",
           "RCS_SIZE":"LARGE",
           "COUNTRY_CODE":"US",
           "LAUNCH_DATE":"2022-09-19",
           "SITE":"AFETR",
           "DECAY_DATE":"2022-10-07",
           "FILE":"3595299",
           "GP_ID":"214375838",
           "TLE_LINE0":"0 STARLINK-4713",
           "TLE_LINE1":"1 53822U 22114E   22280.56206978  .17043645  12483-4  88184-3 0  9991",
           "TLE_LINE2":"2 53822  53.1893 163.7779 0035107  70.8516 296.7032 16.37848764  3538"
        },
        {
           "CCSDS_OMM_VERS":"2.0",
           "COMMENT":"GENERATED VIA SPACE-TRACK.ORG API",
           "CREATION_DATE":"2022-09-24T01:16:11",
           "ORIGINATOR":"18 SPCS",
           "OBJECT_NAME":"SL-4 R\/B",
           "OBJECT_ID":"2022-116B",
           "CENTER_NAME":"EARTH",
           "REF_FRAME":"TEME",
           "TIME_SYSTEM":"UTC",
           "MEAN_ELEMENT_THEORY":"SGP4",
           "EPOCH":"2022-09-24T00:51:32.949792",
           "MEAN_MOTION":"16.50455712",
           "ECCENTRICITY":"0.00027040",
           "INCLINATION":"51.6446",
           "RA_OF_ASC_NODE":"205.3871",
           "ARG_OF_PERICENTER":"144.6995",
           "MEAN_ANOMALY":"303.9550",
           "EPHEMERIS_TYPE":"0",
           "CLASSIFICATION_TYPE":"U",
           "NORAD_CAT_ID":"53880",
           "ELEMENT_SET_NO":"999",
           "REV_AT_EPOCH":"40",
           "BSTAR":"0.00024736000000",
           "MEAN_MOTION_DOT":"0.23216464",
           "MEAN_MOTION_DDOT":"0.0000126570000",
           "SEMIMAJOR_AXIS":"6516.273",
           "PERIOD":"87.249",
           "APOAPSIS":"139.900",
           "PERIAPSIS":"136.376",
           "OBJECT_TYPE":"ROCKET BODY",
           "RCS_SIZE":"LARGE",
           "COUNTRY_CODE":"CIS",
           "LAUNCH_DATE":"2022-09-21",
           "SITE":"TTMTR",
           "DECAY_DATE":"2022-09-24",
           "FILE":"3581673",
           "GP_ID":"213311944",
           "TLE_LINE0":"0 SL-4 R\/B",
           "TLE_LINE1":"1 53880U 22116B   22267.03579803  .23216464  12657-4  24736-3 0  9998",
           "TLE_LINE2":"2 53880  51.6446 205.3871 0002704 144.6995 303.9550 16.50455712   404"
        },
        {
           "CCSDS_OMM_VERS":"2.0",
           "COMMENT":"GENERATED VIA SPACE-TRACK.ORG API",
           "CREATION_DATE":"2022-10-25T08:06:13",
           "ORIGINATOR":"18 SPCS",
           "OBJECT_NAME":"STARLINK-5005",
           "OBJECT_ID":"2022-119AM",
           "CENTER_NAME":"EARTH",
           "REF_FRAME":"TEME",
           "TIME_SYSTEM":"UTC",
           "MEAN_ELEMENT_THEORY":"SGP4",
           "EPOCH":"2022-10-25T07:34:37.726752",
           "MEAN_MOTION":"16.41101036",
           "ECCENTRICITY":"0.00065960",
           "INCLINATION":"53.2199",
           "RA_OF_ASC_NODE":"97.1251",
           "ARG_OF_PERICENTER":"93.9728",
           "MEAN_ANOMALY":"267.8970",
           "EPHEMERIS_TYPE":"0",
           "CLASSIFICATION_TYPE":"U",
           "NORAD_CAT_ID":"53921",
           "ELEMENT_SET_NO":"999",
           "REV_AT_EPOCH":"529",
           "BSTAR":"0.00168880000000",
           "MEAN_MOTION_DOT":"0.26794020",
           "MEAN_MOTION_DDOT":"0.0000123690000",
           "SEMIMAJOR_AXIS":"6541.012",
           "PERIOD":"87.746",
           "APOAPSIS":"167.192",
           "PERIAPSIS":"158.563",
           "OBJECT_TYPE":"PAYLOAD",
           "RCS_SIZE":"LARGE",
           "COUNTRY_CODE":"US",
           "LAUNCH_DATE":"2022-09-24",
           "SITE":"AFETR",
           "DECAY_DATE":"2022-10-25",
           "FILE":"3632666",
           "GP_ID":"216093624",
           "TLE_LINE0":"0 STARLINK-5005",
           "TLE_LINE1":"1 53921U 22119AM  22298.31571443  .26794020  12369-4  16888-2 0  9994",
           "TLE_LINE2":"2 53921  53.2199  97.1251 0006596  93.9728 267.8970 16.41101036  5298"
        }
    ]
}